#dP2019  4  3  0  0  0.00000000      96 __u+U ITR00 FIT  IAC
## 2047 259200.00000000   900.00000000 58576 0.0000000000000
+   92   C02C03C05C06C07C08C09C10C11C12C13C14C16E01E02E03E04
+        E05E07E08E09E11E12E13E14E15E18E19E21E24E25E26E27E30
+        E31E33E36G01G02G03G04G05G06G07G08G09G10G11G12G13G14
+        G15G16G17G18G19G20G21G22G23G24G25G26G27G28G29G30G31
+        G32R01R02R03R04R05R07R08R09R10R11R13R14R15R16R17R18
+        R19R20R21R22R23R24R26  0  0  0  0  0  0  0  0  0  0
++        11 12 11  8  8  9  8  8  8  8  8  8  8  5  6  5  6
++         5  5  5  5  6  6  5  5  5  5  6  5  5  6  5  5  5
++         5  0  6  4  4  3  4  4  3  4  4  4  4  4  3  4  4
++         3  4  3  4  3  4  4  3  4  4  4  4  4  4  4  4  4
++         3  6  5  5  5  5  5  6  6  5  5  5  5  6  6  5  5
++         5  5  6  6  6  6  8  0  0  0  0  0  0  0  0  0  0
%c M  cc GPS ccc cccc cccc cccc cccc ccccc ccccc ccccc ccccc
%c cc cc ccc ccc cccc cccc cccc cccc ccccc ccccc ccccc ccccc
%f  0.0000000  0.000000000  0.00000000000  0.000000000000000
%f  0.0000000  0.000000000  0.00000000000  0.000000000000000
%i    0    0    0    0      0      0      0      0         0
%i    0    0    0    0      0      0      0      0         0
/*                                                          
/*   RSA / INFORMATION & ANALYSIS CENTER (IAC) OF MCC       
/*   ULTRA-RAPID DETERMINATION                              
/* PCV:IGS14_2038 OL/AL:FES2004  NONE     YN ORB:CoN CLK:CoN
*  2019 04 03 14 45  0.00000000
PC02   4374.146456  41948.002638    997.779571   -417.090615
PC03 -14840.943957  39483.656575    434.054014     60.402794
PC05  21884.795021  36033.245716    967.833937   -194.698132
PC06 -24030.114079  33665.250742  -8787.536445    625.907761
PC07  -8456.480615  33077.848335 -24309.906933     61.610607
PC08 -16390.289298  17780.046780  34576.477458    139.976562
PC09 -12195.859713  33537.089685 -22522.974415    656.973604
PC10   2340.148825  39354.221060 -14277.139292   -631.173501
PC11  26640.702581  -5453.977135   6446.214279    -83.129818
PC12   8476.131931  13144.309650  23181.625068    546.197026
PC13    -64.180098  23738.355778  34922.018947   -631.054714
PC14  14704.278348   7778.752392 -22346.097742    708.828886
PC16 -19764.846494  34737.735958 -13714.898909   -484.031154
PE01 -19911.068382 -16453.436893 -14461.111773   -575.923313
PE02  19914.900454  16431.654912  14481.219333     54.310786
PE03  16159.062534   6225.097901 -24003.464772   -151.125661
PE04 -21174.683869  13914.462665  15312.986210   -253.797935
PE05   1625.313002  22888.671387 -18694.555345     80.466211
PE07  13776.653751 -26085.599681   2492.822940   -161.626082
PE08  20970.328293 -14233.360529 -15294.420823   6378.273676
PE09 -13571.350982  26178.477249  -2497.045839   6480.622375
PE11 -12415.456044  14814.634421  22426.244657   5710.615944
PE12 -27961.833230   5206.593072   8253.574390   6462.590005
PE13  12495.978784 -14753.799367 -22398.637597    385.097662
PE14  -8109.855475 -19244.723405 -24884.084414   -515.246991
PE15  27785.023970  -5513.813997  -8558.437146    915.049241
PE18   2963.533299  15392.728249  17553.429154   -614.786863
PE19 -14937.397497  -8139.303441  24230.792762     -7.318509
PE21 -11664.838518 -26872.284759   4232.533242   -527.262534
PE24  -3293.463817  21613.903656 -19979.845361   6151.695000
PE25  11622.960187  26882.409026  -4295.914950   1845.805356
PE26  -9997.781430 -15627.218597 -23057.290552   4724.394940
PE27   3472.114486 -21313.893222  20239.012663    497.411239
PE30  16430.004933  -3562.010231  24349.517847   4980.816244
PE31 -16535.317038   3263.554798 -24332.731759    866.574053
PE33      0.000000      0.000000      0.000000    847.921247
PE36  10143.324388  15386.708946  23170.427588    728.684883
PG01 -21368.743362 -14187.026978  -7684.354874   -194.025318
PG02   1128.185835  16398.718126  21497.928214   -179.878232
PG03 -12474.886089 -19024.732790  13735.512504    187.788825
PG04 -23111.256640   8586.725227   9896.956599    143.651340
PG05   1833.823716  26103.237445   3735.944607      1.162189
PG06 -12348.278513  10533.398235  21076.026211    239.767770
PG07 -25422.865129  -6317.108056  -5448.032615      2.339533
PG08  -4831.203827 -14930.252496 -21359.736231   -138.549876
PG09 -21655.397349   4135.990438  14778.141215    434.923262
PG10  12163.403086 -12456.250777 -19940.624432     81.987505
PG11 -18357.385379 -11236.218675 -15944.187436   -633.403290
PG12  10351.087049  20686.136455  13003.548708    254.508035
PG13  -4621.984772  18110.643777 -18968.150901    -69.254502
PG14  17352.946557 -18438.382022   8014.600253    -85.910882
PG15   8444.961138  13893.880518 -21223.630753   -320.297484
PG16   -296.967451 -26226.833827   1969.133954    -29.998143
PG17 -21821.570250  15021.347849   -604.300393     33.376437
PG18 -13921.782544 -16648.247218 -15889.982343     40.762124
PG19 -18729.270806  17493.181634   6856.015053   -334.918464
PG20  15826.821302  -2357.651244 -21310.862475    523.665569
PG21  24693.725940   1592.216825  -8656.259344   -219.752146
PG22 -10417.903374 -23577.704167   6772.785929   -676.819479
PG23 -15680.604609  -6603.113914  20804.950083   -191.622710
PG24  19162.398825  15055.855190 -11102.891857    -64.264220
PG25  15014.033666   9077.435852  19811.668406   -741.234287
PG26   5075.916249 -22784.226035  12482.548882    166.359102
PG27   6239.857273 -19489.444953 -16859.370410   -100.190717
PG28 -12722.279589  10981.888280 -19986.293766    767.127458
PG29  19170.546827   1444.415495  18299.747896    234.191773
PG30 -21509.674492   2718.157491 -15445.823870    -79.926597
PG31  11747.333896 -11074.582982  21161.062974     47.619815
PG32  19921.223186 -17414.180222   1491.086804   -149.927422
PR01   6995.102703  11853.248624 -21468.074654     41.776193
PR02  13180.104559  -9461.159833 -19623.682407    361.907176
PR03  10594.883660 -22531.927695  -5396.256184     -6.834563
PR04   1511.295760 -22257.704782  12372.855005    301.049083
PR05  -7772.749025  -9577.285614  22337.185570     25.395768
PR07 -10496.306978  22730.684864   5018.345746    -17.632960
PR08  -2044.007362  22588.593863 -11626.261053     18.394969
PR09 -14492.654230  -1265.506049 -20960.970208     62.500828
PR10  -3462.758971  11942.816481 -22284.721644     46.825868
PR11  10849.716733  20503.217456 -10554.908389    -61.777236
PR13  15111.418839   2654.223298  20354.209325    -22.023058
PR14   3404.072227 -12253.828556  22118.286703     37.557934
PR15 -10309.255516 -20362.202303  11399.924062    101.079877
PR16 -18484.053206 -16402.626730  -6097.105512     10.435032
PR17  16967.826085 -10540.118343 -15868.922585    217.334152
PR18   -381.974608 -10613.146264 -23172.172305    -11.665521
PR19 -17316.931685  -5354.450048 -17946.652734    -23.493110
PR20 -25251.881777   3743.876972   -684.959831   -373.790199
PR21 -16433.771388  10600.449435  16371.489754    -40.286814
PR22   3010.752436  10100.241327  23232.675944    -12.680372
PR23  21012.846030   2710.811081  14193.817478    219.414586
PR24  24987.386296  -4967.531650  -1023.439025   -178.939362
PR26 -25107.063729   3108.984464  -3167.831890      4.977409
EOF
